CCSDS_OMM_VERS = 2.0
CREATION_DATE  = 
ORIGINATOR     = 

OBJECT_NAME    = CORAL
OBJECT_ID      = 1998-067YA
CENTER_NAME    = EARTH
REF_FRAME      = TEME
TIME_SYSTEM    = UTC
MEAN_ELEMENT_THEORY = SGP/SGP4

EPOCH          = 2026-04-05T06:41:30.426432
MEAN_MOTION    = 15.59272459
ECCENTRICITY   = .00136838
INCLINATION    = 51.6289
RA_OF_ASC_NODE = 298.4624
ARG_OF_PERICENTER = 274.6624
MEAN_ANOMALY   = 85.2805

EPHEMERIS_TYPE = 0
CLASSIFICATION_TYPE = U
NORAD_CAT_ID   = 67684
ELEMENT_SET_NO = 999
REV_AT_EPOCH   = 893
BSTAR          = .13997931E-2
MEAN_MOTION_DOT = .113769E-2
MEAN_MOTION_DDOT = 0

CCSDS_OMM_VERS = 2.0
CREATION_DATE  = 
ORIGINATOR     = 

OBJECT_NAME    = GXIBA-1
OBJECT_ID      = 1998-067YB
CENTER_NAME    = EARTH
REF_FRAME      = TEME
TIME_SYSTEM    = UTC
MEAN_ELEMENT_THEORY = SGP/SGP4

EPOCH          = 2026-04-04T18:39:38.478816
MEAN_MOTION    = 15.54782829
ECCENTRICITY   = .00125022
INCLINATION    = 51.6301
RA_OF_ASC_NODE = 301.8662
ARG_OF_PERICENTER = 279.3255
MEAN_ANOMALY   = 80.6322

EPHEMERIS_TYPE = 0
CLASSIFICATION_TYPE = U
NORAD_CAT_ID   = 67685
ELEMENT_SET_NO = 999
REV_AT_EPOCH   = 884
BSTAR          = .83058181E-3
MEAN_MOTION_DOT = .56407E-3
MEAN_MOTION_DDOT = 0

CCSDS_OMM_VERS = 2.0
CREATION_DATE  = 
ORIGINATOR     = 

OBJECT_NAME    = UITMSAT-2
OBJECT_ID      = 1998-067YC
CENTER_NAME    = EARTH
REF_FRAME      = TEME
TIME_SYSTEM    = UTC
MEAN_ELEMENT_THEORY = SGP/SGP4

EPOCH          = 2026-04-05T06:31:46.682112
MEAN_MOTION    = 15.55998102
ECCENTRICITY   = .00095672
INCLINATION    = 51.6300
RA_OF_ASC_NODE = 299.1708
ARG_OF_PERICENTER = 255.7390
MEAN_ANOMALY   = 104.2539

EPHEMERIS_TYPE = 0
CLASSIFICATION_TYPE = U
NORAD_CAT_ID   = 67686
ELEMENT_SET_NO = 999
REV_AT_EPOCH   = 892
BSTAR          = .99793281E-3
MEAN_MOTION_DOT = .71028E-3
MEAN_MOTION_DDOT = 0

CCSDS_OMM_VERS = 2.0
CREATION_DATE  = 
ORIGINATOR     = 

OBJECT_NAME    = HMU-SAT2
OBJECT_ID      = 1998-067YD
CENTER_NAME    = EARTH
REF_FRAME      = TEME
TIME_SYSTEM    = UTC
MEAN_ELEMENT_THEORY = SGP/SGP4

EPOCH          = 2026-04-04T18:48:25.578432
MEAN_MOTION    = 15.54504888
ECCENTRICITY   = .0009085
INCLINATION    = 51.6310
RA_OF_ASC_NODE = 301.9093
ARG_OF_PERICENTER = 256.2021
MEAN_ANOMALY   = 103.7959

EPHEMERIS_TYPE = 0
CLASSIFICATION_TYPE = U
NORAD_CAT_ID   = 67687
ELEMENT_SET_NO = 999
REV_AT_EPOCH   = 876
BSTAR          = .80536E-3
MEAN_MOTION_DOT = .54021E-3
MEAN_MOTION_DDOT = 0

CCSDS_OMM_VERS = 2.0
CREATION_DATE  = 
ORIGINATOR     = 

OBJECT_NAME    = LEOPARD
OBJECT_ID      = 1998-067YE
CENTER_NAME    = EARTH
REF_FRAME      = TEME
TIME_SYSTEM    = UTC
MEAN_ELEMENT_THEORY = SGP/SGP4

EPOCH          = 2026-04-04T19:57:03.739392
MEAN_MOTION    = 15.55413317
ECCENTRICITY   = .00092451
INCLINATION    = 51.6311
RA_OF_ASC_NODE = 301.4769
ARG_OF_PERICENTER = 254.0354
MEAN_ANOMALY   = 105.9619

EPHEMERIS_TYPE = 0
CLASSIFICATION_TYPE = U
NORAD_CAT_ID   = 67688
ELEMENT_SET_NO = 999
REV_AT_EPOCH   = 877
BSTAR          = .77370698E-3
MEAN_MOTION_DOT = .53651E-3
MEAN_MOTION_DDOT = 0

CCSDS_OMM_VERS = 2.0
CREATION_DATE  = 
ORIGINATOR     = 

OBJECT_NAME    = CREW DRAGON 12
OBJECT_ID      = 2026-031A
CENTER_NAME    = EARTH
REF_FRAME      = TEME
TIME_SYSTEM    = UTC
MEAN_ELEMENT_THEORY = SGP/SGP4

EPOCH          = 2026-04-05T00:53:27.707136
MEAN_MOTION    = 15.48778120
ECCENTRICITY   = .00062949
INCLINATION    = 51.6327
RA_OF_ASC_NODE = 302.0967
ARG_OF_PERICENTER = 273.6206
MEAN_ANOMALY   = 86.4063

EPHEMERIS_TYPE = 0
CLASSIFICATION_TYPE = U
NORAD_CAT_ID   = 67796
ELEMENT_SET_NO = 999
REV_AT_EPOCH   = 56038
BSTAR          = .17854288E-3
MEAN_MOTION_DOT = .9326E-4
MEAN_MOTION_DDOT = 0

CCSDS_OMM_VERS = 2.0
CREATION_DATE  = 
ORIGINATOR     = 

OBJECT_NAME    = PROGRESS-MS 33
OBJECT_ID      = 2026-058A
CENTER_NAME    = EARTH
REF_FRAME      = TEME
TIME_SYSTEM    = UTC
MEAN_ELEMENT_THEORY = SGP/SGP4

EPOCH          = 2026-04-05T00:53:27.707136
MEAN_MOTION    = 15.48778120
ECCENTRICITY   = .00062949
INCLINATION    = 51.6327
RA_OF_ASC_NODE = 302.0967
ARG_OF_PERICENTER = 273.6206
MEAN_ANOMALY   = 86.4063

EPHEMERIS_TYPE = 0
CLASSIFICATION_TYPE = U
NORAD_CAT_ID   = 68319
ELEMENT_SET_NO = 999
REV_AT_EPOCH   = 189
BSTAR          = .17854288E-3
MEAN_MOTION_DOT = .9326E-4
MEAN_MOTION_DDOT = 0

